{"fetched_at":"2026-03-30T06:02:59Z","count":15439,"tles":[{"name":"STARLINK-35775","line1":"1 67038U 25294J   26087.86049295  .00025874  00000+0  94557-3 0  9990","line2":"2 67038  43.0011 289.5931 0001387 264.5018  95.5675 15.27611037 17746","category":"Starlink"}]}