{
  "norad_id": 67038,
  "name": "STARLINK-35775",
  "history": [
    {
      "epoch": "2026-03-28T20:39:06.590880Z",
      "apogee_km": 483.908001123983,
      "perigee_km": 482.0043222153463,
      "latitude_deg": -2.7490650901603977e-05,
      "longitude_deg": 153.54073221950443,
      "height_km": 482.8241572600543,
      "semi_major_axis_km": 6861.093161669664,
      "eccentricity": 0.00013873,
      "inclination_deg": 43.0011,
      "raan_deg": 289.5931,
      "arg_perigee_deg": 264.5018,
      "mean_anomaly_deg": 95.5675,
      "mean_motion_rev_day": 15.27611037
    }
  ]
}